[{"OBJECT_NAME":"TEVEL2-8","OBJECT_ID":"2025-052AF","EPOCH":"2026-03-09T16:02:08.542752","MEAN_MOTION":15.28392908,"ECCENTRICITY":0.0008031,"INCLINATION":97.4055,"RA_OF_ASC_NODE":324.2923,"ARG_OF_PERICENTER":124.9191,"MEAN_ANOMALY":235.2804,"EPHEMERIS_TYPE":0,"CLASSIFICATION_TYPE":"U","NORAD_CAT_ID":63239,"ELEMENT_SET_NO":999,"REV_AT_EPOCH":5480,"BSTAR":0.00069303947,"MEAN_MOTION_DOT":0.0001913,"MEAN_MOTION_DDOT":0},{"OBJECT_NAME":"STARLINK-33638","OBJECT_ID":"2025-069D","EPOCH":"2026-03-09T10:27:55.697184","MEAN_MOTION":15.30183365,"ECCENTRICITY":0.0001288,"INCLINATION":53.1577,"RA_OF_ASC_NODE":143.8151,"ARG_OF_PERICENTER":102.7718,"MEAN_ANOMALY":257.3427,"EPHEMERIS_TYPE":0,"CLASSIFICATION_TYPE":"U","NORAD_CAT_ID":63436,"ELEMENT_SET_NO":999,"REV_AT_EPOCH":5336,"BSTAR":0.00077282913,"MEAN_MOTION_DOT":0.00022588,"MEAN_MOTION_DDOT":0}]
